ISS OBJECT XX           
1 66911U 98067XX  26069.15059152  .00317119  00000+0  19566-2 0  9994
2 66911  51.6208  61.6978 0006878  85.5905 274.5880 15.75641063 15261
ISS OBJECT XY           
1 66912U 98067XY  26069.15678832  .00111888  00000+0  11613-2 0  9997
2 66912  51.6271  64.7737 0003229  90.6024 269.5341 15.63784753 15228
KNACKSAT-2              
1 67683U 98067XZ  26068.27683825  .00041312  00000+0  68223-3 0  9997
2 67683  51.6309  73.9008 0009391 184.4289 175.6619 15.51788436  4727
GXIBA-1                 
1 67684U 98067YA  26068.31453739  .00079693  00000+0  11905-2 0  9999
2 67684  51.6300  73.4032 0011013 174.4815 185.6299 15.54259962  4735
CORAL                   
1 67685U 98067YB  26069.17385324  .00051186  00000+0  82826-3 0  9997
2 67685  51.6309  69.3914 0011311 184.2035 175.8861 15.52239456  4866
ISS OBJECT YC           
1 67686U 98067YC  26068.26712494  .00051700  00000+0  82449-3 0  9992
2 67686  51.6312  73.8379 0007896 148.5060 211.6404 15.52676056  4728
LEOPARD                 
1 67687U 98067YD  26068.59650201  .00040393  00000+0  66276-3 0  9992
2 67687  51.6320  72.2870 0007827 153.8657 206.2729 15.51994489  4690
ISS OBJECT YE           
1 67688U 98067YE  26069.17073764  .00058415  00000+0  93465-3 0  9995
2 67688  51.6311  69.3722 0007869 152.3589 207.7821 15.52532438  4780
CREW DRAGON 12          
1 67796U 26031A   26069.15865510  .00009130  00000+0  17626-3 0  9998
2 67796  51.6324  70.0375 0007972 176.2903 183.8146 15.48557200556298
