CCSDS_OMM_VERS = 2.0
CREATION_DATE  = 
ORIGINATOR     = 

OBJECT_NAME    = ISS OBJECT XX
OBJECT_ID      = 1998-067XX
CENTER_NAME    = EARTH
REF_FRAME      = TEME
TIME_SYSTEM    = UTC
MEAN_ELEMENT_THEORY = SGP/SGP4

EPOCH          = 2026-03-10T03:36:51.107328
MEAN_MOTION    = 15.75641063
ECCENTRICITY   = .0006878
INCLINATION    = 51.6208
RA_OF_ASC_NODE = 61.6978
ARG_OF_PERICENTER = 85.5905
MEAN_ANOMALY   = 274.5880

EPHEMERIS_TYPE = 0
CLASSIFICATION_TYPE = U
NORAD_CAT_ID   = 66911
ELEMENT_SET_NO = 999
REV_AT_EPOCH   = 1526
BSTAR          = .19566E-2
MEAN_MOTION_DOT = .317119E-2
MEAN_MOTION_DDOT = 0

CCSDS_OMM_VERS = 2.0
CREATION_DATE  = 
ORIGINATOR     = 

OBJECT_NAME    = ISS OBJECT XY
OBJECT_ID      = 1998-067XY
CENTER_NAME    = EARTH
REF_FRAME      = TEME
TIME_SYSTEM    = UTC
MEAN_ELEMENT_THEORY = SGP/SGP4

EPOCH          = 2026-03-10T03:45:46.510848
MEAN_MOTION    = 15.63784753
ECCENTRICITY   = .0003229
INCLINATION    = 51.6271
RA_OF_ASC_NODE = 64.7737
ARG_OF_PERICENTER = 90.6024
MEAN_ANOMALY   = 269.5341

EPHEMERIS_TYPE = 0
CLASSIFICATION_TYPE = U
NORAD_CAT_ID   = 66912
ELEMENT_SET_NO = 999
REV_AT_EPOCH   = 1522
BSTAR          = .11613E-2
MEAN_MOTION_DOT = .111888E-2
MEAN_MOTION_DDOT = 0

CCSDS_OMM_VERS = 2.0
CREATION_DATE  = 
ORIGINATOR     = 

OBJECT_NAME    = KNACKSAT-2
OBJECT_ID      = 1998-067XZ
CENTER_NAME    = EARTH
REF_FRAME      = TEME
TIME_SYSTEM    = UTC
MEAN_ELEMENT_THEORY = SGP/SGP4

EPOCH          = 2026-03-09T06:38:38.824800
MEAN_MOTION    = 15.51788436
ECCENTRICITY   = .00093919
INCLINATION    = 51.6309
RA_OF_ASC_NODE = 73.9008
ARG_OF_PERICENTER = 184.4289
MEAN_ANOMALY   = 175.6619

EPHEMERIS_TYPE = 0
CLASSIFICATION_TYPE = U
NORAD_CAT_ID   = 67683
ELEMENT_SET_NO = 999
REV_AT_EPOCH   = 472
BSTAR          = .68223388E-3
MEAN_MOTION_DOT = .41312E-3
MEAN_MOTION_DDOT = 0

CCSDS_OMM_VERS = 2.0
CREATION_DATE  = 
ORIGINATOR     = 

OBJECT_NAME    = GXIBA-1
OBJECT_ID      = 1998-067YA
CENTER_NAME    = EARTH
REF_FRAME      = TEME
TIME_SYSTEM    = UTC
MEAN_ELEMENT_THEORY = SGP/SGP4

EPOCH          = 2026-03-09T07:32:56.030496
MEAN_MOTION    = 15.54259962
ECCENTRICITY   = .00110131
INCLINATION    = 51.6300
RA_OF_ASC_NODE = 73.4032
ARG_OF_PERICENTER = 174.4815
MEAN_ANOMALY   = 185.6299

EPHEMERIS_TYPE = 0
CLASSIFICATION_TYPE = U
NORAD_CAT_ID   = 67684
ELEMENT_SET_NO = 999
REV_AT_EPOCH   = 473
BSTAR          = .11905476E-2
MEAN_MOTION_DOT = .79693E-3
MEAN_MOTION_DDOT = 0

CCSDS_OMM_VERS = 2.0
CREATION_DATE  = 
ORIGINATOR     = 

OBJECT_NAME    = CORAL
OBJECT_ID      = 1998-067YB
CENTER_NAME    = EARTH
REF_FRAME      = TEME
TIME_SYSTEM    = UTC
MEAN_ELEMENT_THEORY = SGP/SGP4

EPOCH          = 2026-03-10T04:10:20.919936
MEAN_MOTION    = 15.52239456
ECCENTRICITY   = .0011311
INCLINATION    = 51.6309
RA_OF_ASC_NODE = 69.3914
ARG_OF_PERICENTER = 184.2035
MEAN_ANOMALY   = 175.8861

EPHEMERIS_TYPE = 0
CLASSIFICATION_TYPE = U
NORAD_CAT_ID   = 67685
ELEMENT_SET_NO = 999
REV_AT_EPOCH   = 486
BSTAR          = .82826E-3
MEAN_MOTION_DOT = .51186E-3
MEAN_MOTION_DDOT = 0

CCSDS_OMM_VERS = 2.0
CREATION_DATE  = 
ORIGINATOR     = 

OBJECT_NAME    = ISS OBJECT YC
OBJECT_ID      = 1998-067YC
CENTER_NAME    = EARTH
REF_FRAME      = TEME
TIME_SYSTEM    = UTC
MEAN_ELEMENT_THEORY = SGP/SGP4

EPOCH          = 2026-03-09T06:24:39.594816
MEAN_MOTION    = 15.52676056
ECCENTRICITY   = .00078962
INCLINATION    = 51.6312
RA_OF_ASC_NODE = 73.8379
ARG_OF_PERICENTER = 148.5060
MEAN_ANOMALY   = 211.6404

EPHEMERIS_TYPE = 0
CLASSIFICATION_TYPE = U
NORAD_CAT_ID   = 67686
ELEMENT_SET_NO = 999
REV_AT_EPOCH   = 472
BSTAR          = .82449301E-3
MEAN_MOTION_DOT = .517E-3
MEAN_MOTION_DDOT = 0

CCSDS_OMM_VERS = 2.0
CREATION_DATE  = 
ORIGINATOR     = 

OBJECT_NAME    = LEOPARD
OBJECT_ID      = 1998-067YD
CENTER_NAME    = EARTH
REF_FRAME      = TEME
TIME_SYSTEM    = UTC
MEAN_ELEMENT_THEORY = SGP/SGP4

EPOCH          = 2026-03-09T14:18:57.773664
MEAN_MOTION    = 15.51994489
ECCENTRICITY   = .0007827
INCLINATION    = 51.6320
RA_OF_ASC_NODE = 72.2870
ARG_OF_PERICENTER = 153.8657
MEAN_ANOMALY   = 206.2729

EPHEMERIS_TYPE = 0
CLASSIFICATION_TYPE = U
NORAD_CAT_ID   = 67687
ELEMENT_SET_NO = 999
REV_AT_EPOCH   = 469
BSTAR          = .66276E-3
MEAN_MOTION_DOT = .40393E-3
MEAN_MOTION_DDOT = 0

CCSDS_OMM_VERS = 2.0
CREATION_DATE  = 
ORIGINATOR     = 

OBJECT_NAME    = ISS OBJECT YE
OBJECT_ID      = 1998-067YE
CENTER_NAME    = EARTH
REF_FRAME      = TEME
TIME_SYSTEM    = UTC
MEAN_ELEMENT_THEORY = SGP/SGP4

EPOCH          = 2026-03-10T04:05:51.732096
MEAN_MOTION    = 15.52532438
ECCENTRICITY   = .0007869
INCLINATION    = 51.6311
RA_OF_ASC_NODE = 69.3722
ARG_OF_PERICENTER = 152.3589
MEAN_ANOMALY   = 207.7821

EPHEMERIS_TYPE = 0
CLASSIFICATION_TYPE = U
NORAD_CAT_ID   = 67688
ELEMENT_SET_NO = 999
REV_AT_EPOCH   = 478
BSTAR          = .93465E-3
MEAN_MOTION_DOT = .58415E-3
MEAN_MOTION_DDOT = 0

CCSDS_OMM_VERS = 2.0
CREATION_DATE  = 
ORIGINATOR     = 

OBJECT_NAME    = CREW DRAGON 12
OBJECT_ID      = 2026-031A
CENTER_NAME    = EARTH
REF_FRAME      = TEME
TIME_SYSTEM    = UTC
MEAN_ELEMENT_THEORY = SGP/SGP4

EPOCH          = 2026-03-10T03:48:27.800640
MEAN_MOTION    = 15.48557200
ECCENTRICITY   = .0007972
INCLINATION    = 51.6324
RA_OF_ASC_NODE = 70.0375
ARG_OF_PERICENTER = 176.2903
MEAN_ANOMALY   = 183.8146

EPHEMERIS_TYPE = 0
CLASSIFICATION_TYPE = U
NORAD_CAT_ID   = 67796
ELEMENT_SET_NO = 999
REV_AT_EPOCH   = 55629
BSTAR          = .17626E-3
MEAN_MOTION_DOT = .913E-4
MEAN_MOTION_DDOT = 0

